{
    "links": {
        "self": "http://www.neowsapp.com/rest/v1/neo/3729140?api_key=iIulBulltgU6a56xZRHN4H3l9WmuAYTsLGpBGhQ2"
    },
    "id": "3729140",
    "neo_reference_id": "3729140",
    "name": "(2015 TP21)",
    "designation": "2015 TP21",
    "nasa_jpl_url": "http://ssd.jpl.nasa.gov/sbdb.cgi?sstr=3729140",
    "absolute_magnitude_h": 26.7,
    "estimated_diameter": {
        "kilometers": {
            "estimated_diameter_min": 0.0121494041,
            "estimated_diameter_max": 0.0271668934
        },
        "meters": {
            "estimated_diameter_min": 12.14940408,
            "estimated_diameter_max": 27.1668934089
        },
        "miles": {
            "estimated_diameter_min": 0.0075492874,
            "estimated_diameter_max": 0.0168807197
        },
        "feet": {
            "estimated_diameter_min": 39.8602508817,
            "estimated_diameter_max": 89.1302305717
        }
    },
    "is_potentially_hazardous_asteroid": false,
    "close_approach_data": [
        {
            "close_approach_date": "2015-10-06",
            "close_approach_date_full": "2015-Oct-06 00:42",
            "epoch_date_close_approach": 1444092120000,
            "relative_velocity": {
                "kilometers_per_second": "9.7801952712",
                "kilometers_per_hour": "35208.702976459",
                "miles_per_hour": "21877.3188022337"
            },
            "miss_distance": {
                "astronomical": "0.0316891369",
                "lunar": "12.3270742541",
                "kilometers": "4740627.382378403",
                "miles": "2945689.2619838414"
            },
            "orbiting_body": "Earth"
        }
    ],
    "orbital_data": {
        "orbit_id": "6",
        "orbit_determination_date": "2017-04-06 08:31:34",
        "first_observation_date": "2015-10-09",
        "last_observation_date": "2015-10-13",
        "data_arc_in_days": 4,
        "observations_used": 19,
        "orbit_uncertainty": "8",
        "minimum_orbit_intersection": ".00501378",
        "jupiter_tisserand_invariant": "3.169",
        "epoch_osculation": "2457306.5",
        "eccentricity": ".6071688035206932",
        "semi_major_axis": "2.522877194842652",
        "inclination": "1.118234777669924",
        "ascending_node_longitude": "17.11581608619149",
        "orbital_period": "1463.668051982201",
        "perihelion_distance": ".9910648670203962",
        "perihelion_argument": "330.600059911692",
        "aphelion_distance": "4.054689522664908",
        "perihelion_time": "2457282.773133733593",
        "mean_anomaly": "5.83579852299078",
        "mean_motion": ".2459574078374281",
        "equinox": "J2000",
        "orbit_class": {
            "orbit_class_type": "APO",
            "orbit_class_description": "Near-Earth asteroid orbits which cross the Earth’s orbit similar to that of 1862 Apollo",
            "orbit_class_range": "a (semi-major axis) > 1.0 AU; q (perihelion) < 1.017 AU"
        }
    },
    "is_sentry_object": false
}